{
  "type": "FeatureCollection",
  "features": [
    {
      "type": "Feature",
      "properties": {
        "OBJECT_NAME": "COSMOS 2251 DEB",
        "OBJECT_ID": "1993-036ABF",
        "EPOCH": "2025-11-28T07:45:40.310208",
        "MEAN_MOTION": 13.58268527,
        "ECCENTRICITY": 0.03739123,
        "INCLINATION": 73.886,
        "RA_OF_ASC_NODE": 166.6434,
        "ARG_OF_PERICENTER": 233.6204,
        "MEAN_ANOMALY": 307.7662,
        "EPHEMERIS_TYPE": 0,
        "CLASSIFICATION_TYPE": "U",
        "NORAD_CAT_ID": 34816,
        "ELEMENT_SET_NO": 999,
        "REV_AT_EPOCH": 82587,
        "BSTAR": 0.00087950515,
        "MEAN_MOTION_DOT": 9.84e-06,
        "MEAN_MOTION_DDOT": 0,
        "norad_id": 34816,
        "name": "COSMOS 2251 DEB",
        "group": "cosmos-2251-debris",
        "longitude_deg": NaN,
        "latitude_deg": NaN,
        "alt_km": NaN,
        "orbit_class": "HEO",
        "timestamp": "2025-11-30T09:33:02.608417+00:00"
      },
      "geometry": {
        "type": "Point",
        "coordinates": [
          NaN,
          NaN
        ]
      }
    },
    {
      "type": "Feature",
      "properties": {
        "OBJECT_NAME": "COSMOS 2251 DEB",
        "OBJECT_ID": "1993-036ABH",
        "EPOCH": "2025-11-29T00:36:39.820896",
        "MEAN_MOTION": 14.36937328,
        "ECCENTRICITY": 0.0023541,
        "INCLINATION": 74.0352,
        "RA_OF_ASC_NODE": 322.1566,
        "ARG_OF_PERICENTER": 41.6928,
        "MEAN_ANOMALY": 16.3851,
        "EPHEMERIS_TYPE": 0,
        "CLASSIFICATION_TYPE": "U",
        "NORAD_CAT_ID": 34818,
        "ELEMENT_SET_NO": 999,
        "REV_AT_EPOCH": 87173,
        "BSTAR": 0.00023464047,
        "MEAN_MOTION_DOT": 6.71e-06,
        "MEAN_MOTION_DDOT": 0,
        "norad_id": 34818,
        "name": "COSMOS 2251 DEB",
        "group": "cosmos-2251-debris",
        "longitude_deg": NaN,
        "latitude_deg": NaN,
        "alt_km": NaN,
        "orbit_class": "HEO",
        "timestamp": "2025-11-30T09:33:02.608424+00:00"
      },
      "geometry": {
        "type": "Point",
        "coordinates": [
          NaN,
          NaN
        ]
      }
    },
    {
      "type": "Feature",
      "properties": {
        "OBJECT_NAME": "COSMOS 2251 DEB",
        "OBJECT_ID": "1993-036ABJ",
        "EPOCH": "2025-11-29T19:56:48.912288",
        "MEAN_MOTION": 14.63667945,
        "ECCENTRICITY": 0.0016188,
        "INCLINATION": 74.0179,
        "RA_OF_ASC_NODE": 167.4673,
        "ARG_OF_PERICENTER": 261.0578,
        "MEAN_ANOMALY": 113.9186,
        "EPHEMERIS_TYPE": 0,
        "CLASSIFICATION_TYPE": "U",
        "NORAD_CAT_ID": 34819,
        "ELEMENT_SET_NO": 999,
        "REV_AT_EPOCH": 88040,
        "BSTAR": 0.0012322,
        "MEAN_MOTION_DOT": 6.398e-05,
        "MEAN_MOTION_DDOT": 0,
        "norad_id": 34819,
        "name": "COSMOS 2251 DEB",
        "group": "cosmos-2251-debris",
        "longitude_deg": NaN,
        "latitude_deg": NaN,
        "alt_km": NaN,
        "orbit_class": "HEO",
        "timestamp": "2025-11-30T09:33:02.608431+00:00"
      },
      "geometry": {
        "type": "Point",
        "coordinates": [
          NaN,
          NaN
        ]
      }
    },
    {
      "type": "Feature",
      "properties": {
        "OBJECT_NAME": "COSMOS 2251 DEB",
        "OBJECT_ID": "1993-036ABN",
        "EPOCH": "2025-11-28T10:23:27.634272",
        "MEAN_MOTION": 14.54749874,
        "ECCENTRICITY": 0.0155933,
        "INCLINATION": 74.0397,
        "RA_OF_ASC_NODE": 129.3597,
        "ARG_OF_PERICENTER": 217.6145,
        "MEAN_ANOMALY": 141.4034,
        "EPHEMERIS_TYPE": 0,
        "CLASSIFICATION_TYPE": "U",
        "NORAD_CAT_ID": 34823,
        "ELEMENT_SET_NO": 999,
        "REV_AT_EPOCH": 88173,
        "BSTAR": 0.0009080801,
        "MEAN_MOTION_DOT": 4.548e-05,
        "MEAN_MOTION_DDOT": 0,
        "norad_id": 34823,
        "name": "COSMOS 2251 DEB",
        "group": "cosmos-2251-debris",
        "longitude_deg": NaN,
        "latitude_deg": NaN,
        "alt_km": NaN,
        "orbit_class": "HEO",
        "timestamp": "2025-11-30T09:33:02.608437+00:00"
      },
      "geometry": {
        "type": "Point",
        "coordinates": [
          NaN,
          NaN
        ]
      }
    },
    {
      "type": "Feature",
      "properties": {
        "OBJECT_NAME": "COSMOS 2251 DEB",
        "OBJECT_ID": "1993-036ABP",
        "EPOCH": "2025-11-28T06:44:43.474272",
        "MEAN_MOTION": 14.45815545,
        "ECCENTRICITY": 0.00217969,
        "INCLINATION": 74.024,
        "RA_OF_ASC_NODE": 175.3373,
        "ARG_OF_PERICENTER": 338.6212,
        "MEAN_ANOMALY": 21.4033,
        "EPHEMERIS_TYPE": 0,
        "CLASSIFICATION_TYPE": "U",
        "NORAD_CAT_ID": 34845,
        "ELEMENT_SET_NO": 999,
        "REV_AT_EPOCH": 87257,
        "BSTAR": 0.00025523358,
        "MEAN_MOTION_DOT": 8.81e-06,
        "MEAN_MOTION_DDOT": 0,
        "norad_id": 34845,
        "name": "COSMOS 2251 DEB",
        "group": "cosmos-2251-debris",
        "longitude_deg": NaN,
        "latitude_deg": NaN,
        "alt_km": NaN,
        "orbit_class": "HEO",
        "timestamp": "2025-11-30T09:33:02.608443+00:00"
      },
      "geometry": {
        "type": "Point",
        "coordinates": [
          NaN,
          NaN
        ]
      }
    },
    {
      "type": "Feature",
      "properties": {
        "OBJECT_NAME": "COSMOS 2251 DEB",
        "OBJECT_ID": "1993-036ABQ",
        "EPOCH": "2025-11-29T16:31:18.338016",
        "MEAN_MOTION": 14.47073571,
        "ECCENTRICITY": 0.0025762,
        "INCLINATION": 74.0306,
        "RA_OF_ASC_NODE": 286.1798,
        "ARG_OF_PERICENTER": 354.4071,
        "MEAN_ANOMALY": 5.6796,
        "EPHEMERIS_TYPE": 0,
        "CLASSIFICATION_TYPE": "U",
        "NORAD_CAT_ID": 34846,
        "ELEMENT_SET_NO": 999,
        "REV_AT_EPOCH": 87215,
        "BSTAR": 0.00090761,
        "MEAN_MOTION_DOT": 3.294e-05,
        "MEAN_MOTION_DDOT": 0,
        "norad_id": 34846,
        "name": "COSMOS 2251 DEB",
        "group": "cosmos-2251-debris",
        "longitude_deg": NaN,
        "latitude_deg": NaN,
        "alt_km": NaN,
        "orbit_class": "HEO",
        "timestamp": "2025-11-30T09:33:02.608449+00:00"
      },
      "geometry": {
        "type": "Point",
        "coordinates": [
          NaN,
          NaN
        ]
      }
    },
    {
      "type": "Feature",
      "properties": {
        "OBJECT_NAME": "COSMOS 2251 DEB",
        "OBJECT_ID": "1993-036ABW",
        "EPOCH": "2025-11-29T14:00:17.208864",
        "MEAN_MOTION": 14.36988312,
        "ECCENTRICITY": 0.0015664,
        "INCLINATION": 74.0326,
        "RA_OF_ASC_NODE": 287.1672,
        "ARG_OF_PERICENTER": 33.9951,
        "MEAN_ANOMALY": 326.2202,
        "EPHEMERIS_TYPE": 0,
        "CLASSIFICATION_TYPE": "U",
        "NORAD_CAT_ID": 34852,
        "ELEMENT_SET_NO": 999,
        "REV_AT_EPOCH": 87345,
        "BSTAR": 0.00013282,
        "MEAN_MOTION_DOT": 3.68e-06,
        "MEAN_MOTION_DDOT": 0,
        "norad_id": 34852,
        "name": "COSMOS 2251 DEB",
        "group": "cosmos-2251-debris",
        "longitude_deg": NaN,
        "latitude_deg": NaN,
        "alt_km": NaN,
        "orbit_class": "HEO",
        "timestamp": "2025-11-30T09:33:02.608457+00:00"
      },
      "geometry": {
        "type": "Point",
        "coordinates": [
          NaN,
          NaN
        ]
      }
    },
    {
      "type": "Feature",
      "properties": {
        "OBJECT_NAME": "COSMOS 2251 DEB",
        "OBJECT_ID": "1993-036ABY",
        "EPOCH": "2025-11-28T20:52:03.527328",
        "MEAN_MOTION": 14.76439935,
        "ECCENTRICITY": 0.00662724,
        "INCLINATION": 74.0294,
        "RA_OF_ASC_NODE": 185.7661,
        "ARG_OF_PERICENTER": 300.2261,
        "MEAN_ANOMALY": 59.2362,
        "EPHEMERIS_TYPE": 0,
        "CLASSIFICATION_TYPE": "U",
        "NORAD_CAT_ID": 34854,
        "ELEMENT_SET_NO": 999,
        "REV_AT_EPOCH": 71677,
        "BSTAR": 0.00054586896,
        "MEAN_MOTION_DOT": 3.903e-05,
        "MEAN_MOTION_DDOT": 0,
        "norad_id": 34854,
        "name": "COSMOS 2251 DEB",
        "group": "cosmos-2251-debris",
        "longitude_deg": NaN,
        "latitude_deg": NaN,
        "alt_km": NaN,
        "orbit_class": "HEO",
        "timestamp": "2025-11-30T09:33:02.608463+00:00"
      },
      "geometry": {
        "type": "Point",
        "coordinates": [
          NaN,
          NaN
        ]
      }
    },
    {
      "type": "Feature",
      "properties": {
        "OBJECT_NAME": "COSMOS 2251 DEB",
        "OBJECT_ID": "1993-036ACA",
        "EPOCH": "2025-11-30T03:40:37.629120",
        "MEAN_MOTION": 15.04976758,
        "ECCENTRICITY": 0.0034915,
        "INCLINATION": 73.9956,
        "RA_OF_ASC_NODE": 110.7129,
        "ARG_OF_PERICENTER": 248.5782,
        "MEAN_ANOMALY": 293.1648,
        "EPHEMERIS_TYPE": 0,
        "CLASSIFICATION_TYPE": "U",
        "NORAD_CAT_ID": 34856,
        "ELEMENT_SET_NO": 999,
        "REV_AT_EPOCH": 88922,
        "BSTAR": 0.0023181,
        "MEAN_MOTION_DOT": 0.00033446,
        "MEAN_MOTION_DDOT": 0,
        "norad_id": 34856,
        "name": "COSMOS 2251 DEB",
        "group": "cosmos-2251-debris",
        "longitude_deg": NaN,
        "latitude_deg": NaN,
        "alt_km": NaN,
        "orbit_class": "HEO",
        "timestamp": "2025-11-30T09:33:02.608471+00:00"
      },
      "geometry": {
        "type": "Point",
        "coordinates": [
          NaN,
          NaN
        ]
      }
    }
  ]
}